CCSDS_OMM_VERS = 2.0
CREATION_DATE  = 
ORIGINATOR     = 

OBJECT_NAME    = CORAL
OBJECT_ID      = 1998-067YA
CENTER_NAME    = EARTH
REF_FRAME      = TEME
TIME_SYSTEM    = UTC
MEAN_ELEMENT_THEORY = SGP/SGP4

EPOCH          = 2026-03-26T23:30:16.226208
MEAN_MOTION    = 15.57223056
ECCENTRICITY   = .00125497
INCLINATION    = 51.6319
RA_OF_ASC_NODE = 345.1142
ARG_OF_PERICENTER = 237.8521
MEAN_ANOMALY   = 122.1254

EPHEMERIS_TYPE = 0
CLASSIFICATION_TYPE = U
NORAD_CAT_ID   = 67684
ELEMENT_SET_NO = 999
REV_AT_EPOCH   = 748
BSTAR          = .12287344E-2
MEAN_MOTION_DOT = .92043E-3
MEAN_MOTION_DDOT = 0

CCSDS_OMM_VERS = 2.0
CREATION_DATE  = 
ORIGINATOR     = 

OBJECT_NAME    = GXIBA-1
OBJECT_ID      = 1998-067YB
CENTER_NAME    = EARTH
REF_FRAME      = TEME
TIME_SYSTEM    = UTC
MEAN_ELEMENT_THEORY = SGP/SGP4

EPOCH          = 2026-03-26T23:15:05.949504
MEAN_MOTION    = 15.53770911
ECCENTRICITY   = .00118406
INCLINATION    = 51.6322
RA_OF_ASC_NODE = 345.7931
ARG_OF_PERICENTER = 245.2772
MEAN_ANOMALY   = 114.6986

EPHEMERIS_TYPE = 0
CLASSIFICATION_TYPE = U
NORAD_CAT_ID   = 67685
ELEMENT_SET_NO = 999
REV_AT_EPOCH   = 747
BSTAR          = .7144145E-3
MEAN_MOTION_DOT = .46603E-3
MEAN_MOTION_DDOT = 0

CCSDS_OMM_VERS = 2.0
CREATION_DATE  = 
ORIGINATOR     = 

OBJECT_NAME    = UITMSAT-2
OBJECT_ID      = 1998-067YC
CENTER_NAME    = EARTH
REF_FRAME      = TEME
TIME_SYSTEM    = UTC
MEAN_ELEMENT_THEORY = SGP/SGP4

EPOCH          = 2026-03-26T22:55:39.482112
MEAN_MOTION    = 15.54673123
ECCENTRICITY   = .00089394
INCLINATION    = 51.6327
RA_OF_ASC_NODE = 345.7061
ARG_OF_PERICENTER = 216.3568
MEAN_ANOMALY   = 143.6817

EPHEMERIS_TYPE = 0
CLASSIFICATION_TYPE = U
NORAD_CAT_ID   = 67686
ELEMENT_SET_NO = 999
REV_AT_EPOCH   = 747
BSTAR          = .88695547E-3
MEAN_MOTION_DOT = .59955E-3
MEAN_MOTION_DDOT = 0

CCSDS_OMM_VERS = 2.0
CREATION_DATE  = 
ORIGINATOR     = 

OBJECT_NAME    = HMU-SAT2
OBJECT_ID      = 1998-067YD
CENTER_NAME    = EARTH
REF_FRAME      = TEME
TIME_SYSTEM    = UTC
MEAN_ELEMENT_THEORY = SGP/SGP4

EPOCH          = 2026-03-26T23:21:45.635904
MEAN_MOTION    = 15.53521271
ECCENTRICITY   = .00084738
INCLINATION    = 51.6328
RA_OF_ASC_NODE = 345.8268
ARG_OF_PERICENTER = 219.6205
MEAN_ANOMALY   = 140.4167

EPHEMERIS_TYPE = 0
CLASSIFICATION_TYPE = U
NORAD_CAT_ID   = 67687
ELEMENT_SET_NO = 999
REV_AT_EPOCH   = 739
BSTAR          = .73713592E-3
MEAN_MOTION_DOT = .47602E-3
MEAN_MOTION_DDOT = 0

CCSDS_OMM_VERS = 2.0
CREATION_DATE  = 
ORIGINATOR     = 

OBJECT_NAME    = LEOPARD
OBJECT_ID      = 1998-067YE
CENTER_NAME    = EARTH
REF_FRAME      = TEME
TIME_SYSTEM    = UTC
MEAN_ELEMENT_THEORY = SGP/SGP4

EPOCH          = 2026-03-26T23:04:31.552320
MEAN_MOTION    = 15.54263639
ECCENTRICITY   = .00086493
INCLINATION    = 51.6331
RA_OF_ASC_NODE = 345.7466
ARG_OF_PERICENTER = 216.7548
MEAN_ANOMALY   = 143.2850

EPHEMERIS_TYPE = 0
CLASSIFICATION_TYPE = U
NORAD_CAT_ID   = 67688
ELEMENT_SET_NO = 999
REV_AT_EPOCH   = 739
BSTAR          = .79992245E-3
MEAN_MOTION_DOT = .53164E-3
MEAN_MOTION_DDOT = 0

CCSDS_OMM_VERS = 2.0
CREATION_DATE  = 
ORIGINATOR     = 

OBJECT_NAME    = CREW DRAGON 12
OBJECT_ID      = 2026-031A
CENTER_NAME    = EARTH
REF_FRAME      = TEME
TIME_SYSTEM    = UTC
MEAN_ELEMENT_THEORY = SGP/SGP4

EPOCH          = 2026-03-26T19:25:42.682656
MEAN_MOTION    = 15.48566257
ECCENTRICITY   = .00062057
INCLINATION    = 51.6341
RA_OF_ASC_NODE = 347.7277
ARG_OF_PERICENTER = 236.0994
MEAN_ANOMALY   = 123.9405

EPHEMERIS_TYPE = 0
CLASSIFICATION_TYPE = U
NORAD_CAT_ID   = 67796
ELEMENT_SET_NO = 999
REV_AT_EPOCH   = 55892
BSTAR          = .24530547E-3
MEAN_MOTION_DOT = .1289E-3
MEAN_MOTION_DDOT = 0

CCSDS_OMM_VERS = 2.0
CREATION_DATE  = 
ORIGINATOR     = 

OBJECT_NAME    = PROGRESS-MS 33
OBJECT_ID      = 2026-058A
CENTER_NAME    = EARTH
REF_FRAME      = TEME
TIME_SYSTEM    = UTC
MEAN_ELEMENT_THEORY = SGP/SGP4

EPOCH          = 2026-03-26T19:25:42.682656
MEAN_MOTION    = 15.48566257
ECCENTRICITY   = .00062057
INCLINATION    = 51.6341
RA_OF_ASC_NODE = 347.7277
ARG_OF_PERICENTER = 236.0994
MEAN_ANOMALY   = 123.9405

EPHEMERIS_TYPE = 0
CLASSIFICATION_TYPE = U
NORAD_CAT_ID   = 68319
ELEMENT_SET_NO = 999
REV_AT_EPOCH   = 33
BSTAR          = .24530547E-3
MEAN_MOTION_DOT = .1289E-3
MEAN_MOTION_DDOT = 0

